{
    "links": {
        "self": "http://www.neowsapp.com/rest/v1/neo/3548529?api_key=iIulBulltgU6a56xZRHN4H3l9WmuAYTsLGpBGhQ2"
    },
    "id": "3548529",
    "neo_reference_id": "3548529",
    "name": "(2010 TG54)",
    "designation": "2010 TG54",
    "nasa_jpl_url": "http://ssd.jpl.nasa.gov/sbdb.cgi?sstr=3548529",
    "absolute_magnitude_h": 26.6,
    "estimated_diameter": {
        "kilometers": {
            "estimated_diameter_min": 0.0127219879,
            "estimated_diameter_max": 0.0284472297
        },
        "meters": {
            "estimated_diameter_min": 12.7219878539,
            "estimated_diameter_max": 28.4472296503
        },
        "miles": {
            "estimated_diameter_min": 0.0079050743,
            "estimated_diameter_max": 0.0176762835
        },
        "feet": {
            "estimated_diameter_min": 41.7388066307,
            "estimated_diameter_max": 93.330808926
        }
    },
    "is_potentially_hazardous_asteroid": false,
    "close_approach_data": [
        {
            "close_approach_date": "2010-10-15",
            "close_approach_date_full": "2010-Oct-15 09:12",
            "epoch_date_close_approach": 1287133920000,
            "relative_velocity": {
                "kilometers_per_second": "13.2906250664",
                "kilometers_per_hour": "47846.2502390512",
                "miles_per_hour": "29729.7992110371"
            },
            "miss_distance": {
                "astronomical": "0.0112671423",
                "lunar": "4.3829183547",
                "kilometers": "1685540.489066901",
                "miles": "1047346.2938131938"
            },
            "orbiting_body": "Earth"
        },
        {
            "close_approach_date": "2010-11-29",
            "close_approach_date_full": "2010-Nov-29 12:47",
            "epoch_date_close_approach": 1291034820000,
            "relative_velocity": {
                "kilometers_per_second": "6.264018172",
                "kilometers_per_hour": "22550.4654190379",
                "miles_per_hour": "14011.9822488461"
            },
            "miss_distance": {
                "astronomical": "0.1010468763",
                "lunar": "39.3072348807",
                "kilometers": "15116397.464633481",
                "miles": "9392893.8302487978"
            },
            "orbiting_body": "Venus"
        },
        {
            "close_approach_date": "2013-03-14",
            "close_approach_date_full": "2013-Mar-14 07:47",
            "epoch_date_close_approach": 1363247220000,
            "relative_velocity": {
                "kilometers_per_second": "22.5394913986",
                "kilometers_per_hour": "81142.1690350608",
                "miles_per_hour": "50418.588309591"
            },
            "miss_distance": {
                "astronomical": "0.3229474052",
                "lunar": "125.6265406228",
                "kilometers": "48312243.939946924",
                "miles": "30019836.3459745912"
            },
            "orbiting_body": "Earth"
        },
        {
            "close_approach_date": "2014-12-25",
            "close_approach_date_full": "2014-Dec-25 16:11",
            "epoch_date_close_approach": 1419523860000,
            "relative_velocity": {
                "kilometers_per_second": "14.8261137763",
                "kilometers_per_hour": "53374.0095945162",
                "miles_per_hour": "33164.5339061037"
            },
            "miss_distance": {
                "astronomical": "0.0346621344",
                "lunar": "13.4835702816",
                "kilometers": "5185381.475893728",
                "miles": "3222046.6408323264"
            },
            "orbiting_body": "Mars"
        },
        {
            "close_approach_date": "2119-03-20",
            "close_approach_date_full": "2119-Mar-20 18:06",
            "epoch_date_close_approach": 4708778760000,
            "relative_velocity": {
                "kilometers_per_second": "24.9688816298",
                "kilometers_per_hour": "89887.9738672598",
                "miles_per_hour": "55852.8913176871"
            },
            "miss_distance": {
                "astronomical": "0.4031287241",
                "lunar": "156.8170736749",
                "kilometers": "60307198.461177667",
                "miles": "37473155.4704671246"
            },
            "orbiting_body": "Earth"
        }
    ],
    "orbital_data": {
        "orbit_id": "10",
        "orbit_determination_date": "2017-04-06 08:56:22",
        "first_observation_date": "2010-10-09",
        "last_observation_date": "2010-10-14",
        "data_arc_in_days": 5,
        "observations_used": 55,
        "orbit_uncertainty": "8",
        "minimum_orbit_intersection": ".0108532",
        "jupiter_tisserand_invariant": "4.068",
        "epoch_osculation": "2455479.5",
        "eccentricity": ".5250345799589812",
        "semi_major_axis": "1.674609409904534",
        "inclination": "5.723385222746541",
        "ascending_node_longitude": "16.00870812811804",
        "orbital_period": "791.5324384489545",
        "perihelion_distance": ".7953815617799497",
        "perihelion_argument": "72.09528219200551",
        "aphelion_distance": "2.553837258029118",
        "perihelion_time": "2455530.234372774628",
        "mean_anomaly": "336.9252991896883",
        "mean_motion": ".4548139564632843",
        "equinox": "J2000",
        "orbit_class": {
            "orbit_class_type": "APO",
            "orbit_class_description": "Near-Earth asteroid orbits which cross the Earth’s orbit similar to that of 1862 Apollo",
            "orbit_class_range": "a (semi-major axis) > 1.0 AU; q (perihelion) < 1.017 AU"
        }
    },
    "is_sentry_object": false
}